{
  "type": "FeatureCollection",
  "features": [
    {
      "type": "Feature",
      "properties": {
        "norad_id": 66531,
        "name": "STARLINK-35960",
        "group": "last-30-days",
        "lat": 11.223664387948126,
        "lon": -131.56306742813211,
        "alt_km": 413.4642826749732,
        "timestamp": "2025-12-11T13:55:00.913822+00:00",
        "meta_object_name": "STARLINK-35960",
        "meta_object_id": "2025-265R",
        "meta_epoch": "2025-12-11T06:00:02.999808",
        "meta_mean_motion": 15.50648342,
        "meta_eccentricity": 0.00012778,
        "meta_inclination": 43.0002,
        "meta_ra_of_asc_node": 62.6618,
        "meta_arg_of_pericenter": 263.5337,
        "meta_mean_anomaly": 216.3957,
        "meta_ephemeris_type": 0,
        "meta_classification_type": "U",
        "meta_norad_cat_id": 66531,
        "meta_element_set_no": 999,
        "meta_rev_at_epoch": 475,
        "meta_bstar": -0.0022401383,
        "meta_mean_motion_dot": -0.00129921,
        "meta_mean_motion_ddot": 0,
        "tle_line1": "1 66531U 25265R   25345.25003472 -.00129921  00000+0 -22401-2 0  9999",
        "tle_line2": "2 66531  43.0002  62.6618 0001277 263.5337 216.3957 15.50648342  4754"
      },
      "geometry": {
        "type": "Point",
        "coordinates": [
          -131.56306742813211,
          11.223664387948126
        ]
      }
    },
    {
      "type": "Feature",
      "properties": {
        "norad_id": 66532,
        "name": "STARLINK-35914",
        "group": "last-30-days",
        "lat": 9.949339315672567,
        "lon": -130.12375696095393,
        "alt_km": 413.5640433743629,
        "timestamp": "2025-12-11T13:55:00.913832+00:00",
        "meta_object_name": "STARLINK-35914",
        "meta_object_id": "2025-265S",
        "meta_epoch": "2025-12-11T06:00:02.999808",
        "meta_mean_motion": 15.50620924,
        "meta_eccentricity": 0.00014822,
        "meta_inclination": 43,
        "meta_ra_of_asc_node": 62.6564,
        "meta_arg_of_pericenter": 258.9486,
        "meta_mean_anomaly": 222.9053,
        "meta_ephemeris_type": 0,
        "meta_classification_type": "U",
        "meta_norad_cat_id": 66532,
        "meta_element_set_no": 999,
        "meta_rev_at_epoch": 475,
        "meta_bstar": -0.0014722804,
        "meta_mean_motion_dot": -0.000859,
        "meta_mean_motion_ddot": 0,
        "tle_line1": "1 66532U 25265S   25345.25003472 -.00085900  00000+0 -14723-2 0  9996",
        "tle_line2": "2 66532  43.0000  62.6564 0001482 258.9486 222.9053 15.50620924  4750"
      },
      "geometry": {
        "type": "Point",
        "coordinates": [
          -130.12375696095393,
          9.949339315672567
        ]
      }
    },
    {
      "type": "Feature",
      "properties": {
        "norad_id": 66533,
        "name": "STARLINK-35707",
        "group": "last-30-days",
        "lat": 8.662995937208876,
        "lon": -128.6882756854847,
        "alt_km": 413.8141707348468,
        "timestamp": "2025-12-11T13:55:00.913842+00:00",
        "meta_object_name": "STARLINK-35707",
        "meta_object_id": "2025-265T",
        "meta_epoch": "2025-12-11T06:00:02.999808",
        "meta_mean_motion": 15.50620018,
        "meta_eccentricity": 0.0001398,
        "meta_inclination": 43.0001,
        "meta_ra_of_asc_node": 62.6518,
        "meta_arg_of_pericenter": 264.6019,
        "meta_mean_anomaly": 219.1684,
        "meta_ephemeris_type": 0,
        "meta_classification_type": "U",
        "meta_norad_cat_id": 66533,
        "meta_element_set_no": 999,
        "meta_rev_at_epoch": 475,
        "meta_bstar": -0.0014928042,
        "meta_mean_motion_dot": -0.00087076,
        "meta_mean_motion_ddot": 0,
        "tle_line1": "1 66533U 25265T   25345.25003472 -.00087076  00000+0 -14928-2 0  9990",
        "tle_line2": "2 66533  43.0001  62.6518 0001398 264.6019 219.1684 15.50620018  4755"
      },
      "geometry": {
        "type": "Point",
        "coordinates": [
          -128.6882756854847,
          8.662995937208876
        ]
      }
    },
    {
      "type": "Feature",
      "properties": {
        "norad_id": 66534,
        "name": "STARLINK-35976",
        "group": "last-30-days",
        "lat": 7.3675568720668485,
        "lon": -127.25807592770727,
        "alt_km": 413.9214893130147,
        "timestamp": "2025-12-11T13:55:00.913852+00:00",
        "meta_object_name": "STARLINK-35976",
        "meta_object_id": "2025-265U",
        "meta_epoch": "2025-12-11T06:00:02.999808",
        "meta_mean_motion": 15.50629369,
        "meta_eccentricity": 0.00014787,
        "meta_inclination": 43.0004,
        "meta_ra_of_asc_node": 62.6476,
        "meta_arg_of_pericenter": 261.6355,
        "meta_mean_anomaly": 224.0513,
        "meta_ephemeris_type": 0,
        "meta_classification_type": "U",
        "meta_norad_cat_id": 66534,
        "meta_element_set_no": 999,
        "meta_rev_at_epoch": 475,
        "meta_bstar": -0.0017048714,
        "meta_mean_motion_dot": -0.00099278,
        "meta_mean_motion_ddot": 0,
        "tle_line1": "1 66534U 25265U   25345.25003472 -.00099278  00000+0 -17049-2 0  9995",
        "tle_line2": "2 66534  43.0004  62.6476 0001478 261.6355 224.0513 15.50629369  4755"
      },
      "geometry": {
        "type": "Point",
        "coordinates": [
          -127.25807592770727,
          7.3675568720668485
        ]
      }
    },
    {
      "type": "Feature",
      "properties": {
        "norad_id": 66535,
        "name": "STARLINK-35514",
        "group": "last-30-days",
        "lat": 6.066551722329985,
        "lon": -125.83602929540984,
        "alt_km": 414.1858896693957,
        "timestamp": "2025-12-11T13:55:00.913863+00:00",
        "meta_object_name": "STARLINK-35514",
        "meta_object_id": "2025-265V",
        "meta_epoch": "2025-12-11T06:00:02.999808",
        "meta_mean_motion": 15.5063825,
        "meta_eccentricity": 0.00013765,
        "meta_inclination": 43.0004,
        "meta_ra_of_asc_node": 62.6426,
        "meta_arg_of_pericenter": 267.6092,
        "meta_mean_anomaly": 219.9979,
        "meta_ephemeris_type": 0,
        "meta_classification_type": "U",
        "meta_norad_cat_id": 66535,
        "meta_element_set_no": 999,
        "meta_rev_at_epoch": 475,
        "meta_bstar": -0.0020956753,
        "meta_mean_motion_dot": -0.00121649,
        "meta_mean_motion_ddot": 0,
        "tle_line1": "1 66535U 25265V   25345.25003472 -.00121649  00000+0 -20957-2 0  9996",
        "tle_line2": "2 66535  43.0004  62.6426 0001376 267.6092 219.9979 15.50638250  4750"
      },
      "geometry": {
        "type": "Point",
        "coordinates": [
          -125.83602929540984,
          6.066551722329985
        ]
      }
    },
    {
      "type": "Feature",
      "properties": {
        "norad_id": 66536,
        "name": "STARLINK-35640",
        "group": "last-30-days",
        "lat": 4.773265828415574,
        "lon": -124.43287917073182,
        "alt_km": 414.22978514259285,
        "timestamp": "2025-12-11T13:55:00.913873+00:00",
        "meta_object_name": "STARLINK-35640",
        "meta_object_id": "2025-265W",
        "meta_epoch": "2025-12-11T06:00:02.999808",
        "meta_mean_motion": 15.5062699,
        "meta_eccentricity": 0.00015008,
        "meta_inclination": 43.0003,
        "meta_ra_of_asc_node": 62.638,
        "meta_arg_of_pericenter": 261.7655,
        "meta_mean_anomaly": 227.7537,
        "meta_ephemeris_type": 0,
        "meta_classification_type": "U",
        "meta_norad_cat_id": 66536,
        "meta_element_set_no": 999,
        "meta_rev_at_epoch": 473,
        "meta_bstar": -0.0016946642,
        "meta_mean_motion_dot": -0.00098685,
        "meta_mean_motion_ddot": 0,
        "tle_line1": "1 66536U 25265W   25345.25003472 -.00098685  00000+0 -16947-2 0  9994",
        "tle_line2": "2 66536  43.0003  62.6380 0001500 261.7655 227.7537 15.50626990  4731"
      },
      "geometry": {
        "type": "Point",
        "coordinates": [
          -124.43287917073182,
          4.773265828415574
        ]
      }
    },
    {
      "type": "Feature",
      "properties": {
        "norad_id": 66537,
        "name": "STARLINK-35582",
        "group": "last-30-days",
        "lat": 3.469438340067674,
        "lon": -123.02699807590398,
        "alt_km": 414.3178961863741,
        "timestamp": "2025-12-11T13:55:00.913882+00:00",
        "meta_object_name": "STARLINK-35582",
        "meta_object_id": "2025-265X",
        "meta_epoch": "2025-12-11T06:00:02.999808",
        "meta_mean_motion": 15.50622463,
        "meta_eccentricity": 0.00014572,
        "meta_inclination": 43.0004,
        "meta_ra_of_asc_node": 62.6331,
        "meta_arg_of_pericenter": 258.3164,
        "meta_mean_anomaly": 233.1231,
        "meta_ephemeris_type": 0,
        "meta_classification_type": "U",
        "meta_norad_cat_id": 66537,
        "meta_element_set_no": 999,
        "meta_rev_at_epoch": 475,
        "meta_bstar": -0.0015932761,
        "meta_mean_motion_dot": -0.00092855,
        "meta_mean_motion_ddot": 0,
        "tle_line1": "1 66537U 25265X   25345.25003472 -.00092855  00000+0 -15933-2 0  9992",
        "tle_line2": "2 66537  43.0004  62.6331 0001457 258.3164 233.1231 15.50622463  4752"
      },
      "geometry": {
        "type": "Point",
        "coordinates": [
          -123.02699807590398,
          3.469438340067674
        ]
      }
    }
  ]
}